{
"type": "FeatureCollection",
"name": "boundary",
"crs": { "type": "name", "properties": { "name": "urn:ogc:def:crs:OGC:1.3:CRS84" } },
"features": [
{ "type": "Feature", "properties": { }, "geometry": { "type": "MultiPolygon", "coordinates": [ [ [ [ -122.72174259734949, 45.509236115175412 ], [ -122.722226912356817, 45.509401725237758 ], [ -122.721771568017374, 45.509861750981834 ], [ -122.722508961796478, 45.510353878582386 ], [ -122.721356054079365, 45.511578823848829 ], [ -122.723016962682934, 45.509937396809647 ], [ -122.724006976194602, 45.5103348607283 ], [ -122.723688031149592, 45.510653034687678 ], [ -122.7230619826517, 45.510742079989846 ], [ -122.722172870607622, 45.511780687820099 ], [ -122.722735803473711, 45.511819649176537 ], [ -122.72261480848978, 45.512235636712269 ], [ -122.721351060344688, 45.51230642905319 ], [ -122.721189391441342, 45.511878886854547 ], [ -122.721106812012195, 45.512356196032002 ], [ -122.722372102564634, 45.512330025221445 ], [ -122.723377695558298, 45.512598982692289 ], [ -122.723729307838596, 45.511890574866271 ], [ -122.724583138549846, 45.511950252492817 ], [ -122.724940530590658, 45.512462274120459 ], [ -122.724757425189679, 45.513348570289494 ], [ -122.723849245505448, 45.514235989338673 ], [ -122.724799397174706, 45.51437836833464 ], [ -122.724785650255924, 45.514558893778165 ], [ -122.723831396879064, 45.514491168557029 ], [ -122.723178272260128, 45.515199681501961 ], [ -122.722842273597792, 45.514854693222738 ], [ -122.723065853492216, 45.514181558324822 ], [ -122.724567727052815, 45.512739010888957 ], [ -122.724261118571619, 45.512317222456979 ], [ -122.724361797257089, 45.512732826729454 ], [ -122.722918022237479, 45.514084446013683 ], [ -122.722879265322902, 45.514658793838528 ], [ -122.722323317756491, 45.514751302455657 ], [ -122.722391166611587, 45.515366048259629 ], [ -122.720801110829441, 45.515026195582898 ], [ -122.722218495142585, 45.514264519805366 ], [ -122.721660514688736, 45.51395579589505 ], [ -122.721879986587354, 45.513591335672622 ], [ -122.72159059342026, 45.513401049438457 ], [ -122.721217663219974, 45.513425264563303 ], [ -122.720737429258918, 45.513896138020591 ], [ -122.719740761027637, 45.514132202751256 ], [ -122.719747603495151, 45.508609222145978 ], [ -122.720181537388072, 45.508610369170107 ], [ -122.720236393010936, 45.508805141329084 ], [ -122.720559930243667, 45.508218835354825 ], [ -122.721276685229043, 45.508430587651837 ], [ -122.72108242634549, 45.509188876167428 ], [ -122.72170338139577, 45.509373178456187 ], [ -122.721254935219406, 45.509120287686208 ], [ -122.721479215799746, 45.508406570572838 ], [ -122.722007859971427, 45.508596499116457 ], [ -122.722935092024542, 45.50829749953941 ], [ -122.722903855805484, 45.505377350540982 ], [ -122.723767723393379, 45.505262966290147 ], [ -122.724808900452075, 45.505579284601488 ], [ -122.724964314386114, 45.505327341929224 ], [ -122.725877991759958, 45.505195721584187 ], [ -122.725866182507218, 45.504016029786527 ], [ -122.727151510880347, 45.504015906386357 ], [ -122.727144544445324, 45.503425949850424 ], [ -122.729469405960188, 45.503412177366407 ], [ -122.729307926601336, 45.504007052425038 ], [ -122.73105591788854, 45.504014643423595 ], [ -122.731064447392143, 45.503771961392772 ], [ -122.732418071981371, 45.503402594863523 ], [ -122.732375737975303, 45.502679883085726 ], [ -122.733577513145548, 45.503121848212032 ], [ -122.733568690791117, 45.501262407760308 ], [ -122.732259969389688, 45.501253552736301 ], [ -122.73224810533975, 45.50042808762776 ], [ -122.731090122141268, 45.500417820206103 ], [ -122.730944412707245, 45.500064892267609 ], [ -122.730941039533334, 45.499333068868488 ], [ -122.731297145186687, 45.498970311606733 ], [ -122.730833607313599, 45.498415975955588 ], [ -122.732126862420799, 45.498030184252038 ], [ -122.730803817382139, 45.498316788170662 ], [ -122.730739471058357, 45.498609830092619 ], [ -122.731190605892309, 45.499032845793991 ], [ -122.730314366706352, 45.499649571612487 ], [ -122.729686415576651, 45.499647729911288 ], [ -122.729573260190207, 45.498405279371774 ], [ -122.729571653104145, 45.498634036469305 ], [ -122.728670741688816, 45.498631699827783 ], [ -122.727838506476999, 45.497955178528905 ], [ -122.725087021558977, 45.498305898893115 ], [ -122.72509413891099, 45.498815332102382 ], [ -122.726036028774573, 45.498815120539682 ], [ -122.726053327632059, 45.50042908748452 ], [ -122.725116685726348, 45.500429331781994 ], [ -122.725100698409207, 45.499292855948902 ], [ -122.723923243328656, 45.499295263083262 ], [ -122.722593331567964, 45.499853725547908 ], [ -122.722463932844548, 45.500266224564243 ], [ -122.721964122796891, 45.500386987077846 ], [ -122.721551705351615, 45.499560181978232 ], [ -122.721872123633673, 45.499662013325633 ], [ -122.722116815733898, 45.499183461878324 ], [ -122.724021473206633, 45.499223318496256 ], [ -122.724019739458114, 45.498518335133504 ], [ -122.723233495293925, 45.498837170904835 ], [ -122.723220705080891, 45.497108431970695 ], [ -122.723589473386554, 45.497109718386149 ], [ -122.723649124216308, 45.496497696139379 ], [ -122.724035061123615, 45.496114507617385 ], [ -122.723218648837232, 45.496112140646645 ], [ -122.723216014078503, 45.494838797335753 ], [ -122.726689584584847, 45.494854918790431 ], [ -122.726997649235088, 45.494334517515313 ], [ -122.743809626963937, 45.494401360851384 ], [ -122.743863074926693, 45.492055723802302 ], [ -122.744669564422495, 45.490749418192422 ], [ -122.743799527205184, 45.49074118621818 ], [ -122.743773815625133, 45.488253055287963 ], [ -122.745453597832793, 45.487959643954831 ], [ -122.745484671456794, 45.487522335414106 ], [ -122.745251027736217, 45.487513374316158 ], [ -122.745282306176094, 45.487122074165939 ], [ -122.743763587407301, 45.487255626102211 ], [ -122.743695472650884, 45.47796094203435 ], [ -122.745328577498043, 45.478274804126755 ], [ -122.745699702982975, 45.478579063886421 ], [ -122.74740136725265, 45.47867244181537 ], [ -122.747061738498218, 45.478110711223543 ], [ -122.747447084314061, 45.476437287673512 ], [ -122.746634413510833, 45.476426763917388 ], [ -122.746613948092019, 45.477166896587462 ], [ -122.745834361342375, 45.477157348671717 ], [ -122.745847702222648, 45.47641908794246 ], [ -122.74546423927562, 45.476416524244733 ], [ -122.745438568119781, 45.477394972117082 ], [ -122.744296546187286, 45.477137297917388 ], [ -122.744424610912503, 45.476118340205595 ], [ -122.743968312562259, 45.476118509649915 ], [ -122.743967412450317, 45.476393822601651 ], [ -122.743687085081078, 45.476397194463935 ], [ -122.743684449424066, 45.475395869743146 ], [ -122.744298910553084, 45.475404330098463 ], [ -122.744518827117801, 45.475724556543298 ], [ -122.744970069749627, 45.475413495954406 ], [ -122.744963865085964, 45.474664401049559 ], [ -122.743682486605124, 45.474651390664576 ], [ -122.743669408931225, 45.469247229687667 ], [ -122.74494802599088, 45.469256084074338 ], [ -122.74494891083144, 45.467572895290999 ], [ -122.746222824312269, 45.467197458124126 ], [ -122.746228466630569, 45.467389412524312 ], [ -122.747101638968203, 45.467381444257413 ], [ -122.747102044108374, 45.466773940603574 ], [ -122.748064296982875, 45.466517143327565 ], [ -122.748816899239699, 45.466521845105639 ], [ -122.748809760328129, 45.467928612974404 ], [ -122.749900064453087, 45.46853375369399 ], [ -122.754460115854499, 45.464880345057033 ], [ -122.755030316989533, 45.46523103700217 ], [ -122.755211781168498, 45.465087368164305 ], [ -122.754863205193828, 45.464670940926887 ], [ -122.753999099552416, 45.464432236242871 ], [ -122.75267447617378, 45.464424699132138 ], [ -122.752118359724122, 45.465009794677115 ], [ -122.751726884703075, 45.465008864754786 ], [ -122.752013003510939, 45.464408206697946 ], [ -122.751406360419779, 45.464405596461241 ], [ -122.751404466771191, 45.464797630861902 ], [ -122.750761356571076, 45.464793959040854 ], [ -122.75075943687132, 45.46517382303373 ], [ -122.749344612756701, 45.46498473717115 ], [ -122.749345169712157, 45.464825230625152 ], [ -122.748826567807058, 45.465406013907455 ], [ -122.748828357251142, 45.464999875504809 ], [ -122.748088795837262, 45.464940772473561 ], [ -122.748093199378815, 45.464270376835778 ], [ -122.747547533030826, 45.464267559940616 ], [ -122.747538821169201, 45.465596825877711 ], [ -122.743684065843425, 45.465580158010177 ], [ -122.743681289150871, 45.458485843278517 ], [ -122.745209847166961, 45.458492858829132 ], [ -122.745200771487632, 45.457179522341242 ], [ -122.744631784874883, 45.457177806534872 ], [ -122.744628944401953, 45.45676640279823 ], [ -122.743672469491386, 45.456692961541613 ], [ -122.743685018955944, 45.447278119702041 ], [ -122.744366741441908, 45.447282089500597 ], [ -122.744363749153649, 45.447700639191382 ], [ -122.745317774358455, 45.447703228773875 ], [ -122.745332269573879, 45.445611803756748 ], [ -122.745721889573844, 45.445614261083662 ], [ -122.745727588486048, 45.444791452693202 ], [ -122.744730372282376, 45.44477974697336 ], [ -122.744728032171054, 45.445116600732128 ], [ -122.743701086223112, 45.44510931124902 ], [ -122.743720929109415, 45.43328985782825 ], [ -122.733434995425739, 45.433214656228607 ], [ -122.733431136263292, 45.434373014507926 ], [ -122.728212209228474, 45.434330747487436 ], [ -122.726568910299477, 45.43719877583564 ], [ -122.727188003142103, 45.438318986277295 ], [ -122.72722166391415, 45.440351174041361 ], [ -122.725103617035543, 45.440333964843134 ], [ -122.725106854563862, 45.43992263236958 ], [ -122.724526085647796, 45.43991788929425 ], [ -122.724519191078031, 45.440329202262916 ], [ -122.717229323021542, 45.440267596272697 ], [ -122.717263003556468, 45.438167889152467 ], [ -122.715049607697026, 45.438149021523635 ], [ -122.715013083994194, 45.440245448606568 ], [ -122.712821991506615, 45.440222243278825 ], [ -122.712831108508411, 45.434928667402644 ], [ -122.711238162846016, 45.434925636608774 ], [ -122.711230525369444, 45.434687216375529 ], [ -122.710253525751298, 45.434687636200245 ], [ -122.710233064824067, 45.440154854741266 ], [ -122.707642162746225, 45.44010692181056 ], [ -122.707659874828693, 45.437475486596824 ], [ -122.70820457189447, 45.43747784027267 ], [ -122.70820893231685, 45.436805651312824 ], [ -122.708210244755492, 45.436572415427491 ], [ -122.707664415812417, 45.436570155635536 ], [ -122.707674563181897, 45.434906517640904 ], [ -122.705105974357366, 45.434839199028964 ], [ -122.700994808408495, 45.433839452118939 ], [ -122.70228676185684, 45.432979999739182 ], [ -122.698709597631932, 45.43295707887988 ], [ -122.698710690881626, 45.432550174712802 ], [ -122.697406449378505, 45.432541525112498 ], [ -122.697288224798925, 45.436076887220601 ], [ -122.696031038846996, 45.436515690525276 ], [ -122.687124755742971, 45.436455662544091 ], [ -122.687134310224351, 45.437230908638917 ], [ -122.684075475715019, 45.434604468607233 ], [ -122.681898542472908, 45.434598560794271 ], [ -122.681874794610067, 45.436409125843952 ], [ -122.67549299215176, 45.436387734342162 ], [ -122.675567479556818, 45.432809801420312 ], [ -122.66616233861933, 45.432749238079005 ], [ -122.666458936274992, 45.433486371216325 ], [ -122.667623731398265, 45.433321491072746 ], [ -122.667647692161836, 45.433787864568053 ], [ -122.667007814100117, 45.434044320470768 ], [ -122.668128017750988, 45.434036453394512 ], [ -122.668399537138882, 45.433323558097676 ], [ -122.669288810879678, 45.433325881688212 ], [ -122.668392629992681, 45.434645387696087 ], [ -122.669519159579792, 45.434856937519058 ], [ -122.669351305775663, 45.435763859878307 ], [ -122.670165248593364, 45.435951324754882 ], [ -122.670429717104568, 45.436385921459902 ], [ -122.670461030578736, 45.436900381822099 ], [ -122.667992021800131, 45.436907933958096 ], [ -122.669410524515797, 45.439767289984353 ], [ -122.667805809126577, 45.440237678831572 ], [ -122.668832520614245, 45.44140102038115 ], [ -122.667894745034644, 45.441766785480901 ], [ -122.668272609680827, 45.442247043018114 ], [ -122.669125043511798, 45.44191497995228 ], [ -122.668908731886333, 45.441639691466378 ], [ -122.669313043832787, 45.441293952497233 ], [ -122.669616332140677, 45.441585257091241 ], [ -122.669979061072624, 45.441564678735737 ], [ -122.669986388630392, 45.442113195326641 ], [ -122.671631929754341, 45.442110327532006 ], [ -122.671698925209952, 45.441835875130366 ], [ -122.672255319239028, 45.442297987511125 ], [ -122.671647537982423, 45.442644212574997 ], [ -122.670925982400135, 45.44267070317774 ], [ -122.670663947425012, 45.4435169437563 ], [ -122.671443202696324, 45.443525720879393 ], [ -122.671440735024248, 45.443092124575607 ], [ -122.672957868266565, 45.442542530269705 ], [ -122.672888897415689, 45.443958229166498 ], [ -122.670567337209491, 45.44395645308277 ], [ -122.67056687367878, 45.443604305251753 ], [ -122.669706113363446, 45.443851982959082 ], [ -122.669603956051034, 45.445681190584736 ], [ -122.668906376503628, 45.445677477183096 ], [ -122.668730559134559, 45.444080476281421 ], [ -122.668211858414793, 45.44419762620911 ], [ -122.668208597530295, 45.445325982948646 ], [ -122.667526815755551, 45.445325442195333 ], [ -122.6672244392376, 45.446816605239526 ], [ -122.669178611848807, 45.44681951376004 ], [ -122.669176499011272, 45.447567248746402 ], [ -122.667714905009703, 45.44770327162901 ], [ -122.667616510740032, 45.448051794697236 ], [ -122.666898640047009, 45.448067067402278 ], [ -122.666950723468901, 45.449379718072592 ], [ -122.666035896251501, 45.449280945587567 ], [ -122.665091623157466, 45.449752324562191 ], [ -122.666201123381725, 45.4509979870626 ], [ -122.665274218315375, 45.450670476315842 ], [ -122.66540456026982, 45.451090694168968 ], [ -122.665020694877569, 45.451451281273428 ], [ -122.665434968242209, 45.451802470145282 ], [ -122.665349864547139, 45.45221541683653 ], [ -122.664789896121519, 45.452537259703142 ], [ -122.664446816039799, 45.452424620832339 ], [ -122.664470556716111, 45.453100990731436 ], [ -122.661724600030311, 45.45441549597993 ], [ -122.660251931597955, 45.45265450234745 ], [ -122.658189177821754, 45.453273298747234 ], [ -122.661110643754455, 45.457807486327724 ], [ -122.652933063229142, 45.458314129624341 ], [ -122.652572533373018, 45.455354394058034 ], [ -122.646644188792024, 45.455711917293456 ], [ -122.64700945815963, 45.458673885440184 ], [ -122.641259461501917, 45.458676752392769 ], [ -122.641594863682897, 45.461487795394923 ], [ -122.626290876143443, 45.461458003880217 ], [ -122.626348319812607, 45.458512830522814 ], [ -122.625133249576166, 45.458517781858447 ], [ -122.625124181083365, 45.459547600444225 ], [ -122.624748576598435, 45.45954772268167 ], [ -122.624757434885453, 45.458516676030825 ], [ -122.622505560589104, 45.458517347088637 ], [ -122.622373854992034, 45.461448963658555 ], [ -122.61900992296782, 45.461352510174621 ], [ -122.619009703778872, 45.460913674478704 ], [ -122.617648085980235, 45.460668035008595 ], [ -122.617614066780419, 45.460950410957587 ], [ -122.617033707496219, 45.46090462219837 ], [ -122.616953455601958, 45.461467563276678 ], [ -122.615672388836543, 45.461600462158103 ], [ -122.615227939264884, 45.461214503982738 ], [ -122.613658384834153, 45.460725317817619 ], [ -122.61304568260644, 45.461650882599209 ], [ -122.611704355953378, 45.46222171591711 ], [ -122.609095834319589, 45.460578754889511 ], [ -122.609632351326383, 45.459503198004441 ], [ -122.608426445702463, 45.459117679140242 ], [ -122.608426854435933, 45.459800452990258 ], [ -122.608713910186665, 45.459807340469688 ], [ -122.608427149981679, 45.46030471242463 ], [ -122.608747980590465, 45.460316460288432 ], [ -122.608734177077778, 45.461511104127013 ], [ -122.606686893189078, 45.461499568214947 ], [ -122.606687582196912, 45.461237909228601 ], [ -122.605757365940391, 45.46120329249667 ], [ -122.605756596084177, 45.461494297696724 ], [ -122.598399024699688, 45.461378837624437 ], [ -122.598394034558297, 45.460763971740917 ], [ -122.598153379486916, 45.460762331022636 ], [ -122.598360051291081, 45.461378888030005 ], [ -122.597677016366475, 45.461379766346525 ], [ -122.597672640672755, 45.460830370383839 ], [ -122.597190856219584, 45.460758503309982 ], [ -122.597195675681093, 45.461380388854941 ], [ -122.596714334995596, 45.461381009473108 ], [ -122.596710050930071, 45.460823789246113 ], [ -122.596251652318657, 45.46082065840109 ], [ -122.596256247201325, 45.46138159921793 ], [ -122.595729308032077, 45.461382274022043 ], [ -122.595539220026367, 45.460815790437643 ], [ -122.59546584383736, 45.461382601658045 ], [ -122.593439579627969, 45.461385640481758 ], [ -122.593224533728758, 45.461111642263376 ], [ -122.593225220041603, 45.461385913301719 ], [ -122.588463364806557, 45.461477632396658 ], [ -122.588264965587811, 45.462307511099247 ], [ -122.587678961290322, 45.462310321791847 ], [ -122.587679983573111, 45.461936941384792 ], [ -122.588071150472032, 45.461934984409034 ], [ -122.588072239230144, 45.461479230879526 ], [ -122.586799049791452, 45.461485714280215 ], [ -122.586800070277619, 45.461845195314226 ], [ -122.586233403114903, 45.461848115030925 ], [ -122.586232806633575, 45.462206508790963 ], [ -122.586799737900947, 45.462203728336057 ], [ -122.586797758912397, 45.463225363314308 ], [ -122.585821115925384, 45.463229666546169 ], [ -122.585821786068593, 45.462804544082239 ], [ -122.585508646835265, 45.462805922008826 ], [ -122.585507770079545, 45.463231057063403 ], [ -122.584525130838031, 45.463236115722964 ], [ -122.584525040108176, 45.462366885926038 ], [ -122.585511098337676, 45.462367669088437 ], [ -122.585504758926717, 45.46112029567486 ], [ -122.584971255767684, 45.46112292181548 ], [ -122.584974811299617, 45.461494985100828 ], [ -122.580021104665917, 45.461520005723791 ], [ -122.580023362132209, 45.462639776707753 ], [ -122.579174471256707, 45.462644192764216 ], [ -122.579172699778965, 45.461444608625108 ], [ -122.570132403305934, 45.461389232506036 ], [ -122.570632422661049, 45.460680514946169 ], [ -122.571361042594745, 45.458181013171654 ], [ -122.568664387248432, 45.458134782979805 ], [ -122.568664785202103, 45.457722557630454 ], [ -122.566074557758995, 45.457644607914929 ], [ -122.566056833998445, 45.460426937344401 ], [ -122.565493927183539, 45.460414934321179 ], [ -122.56549506984058, 45.461274652427001 ], [ -122.56493406565744, 45.461258228379037 ], [ -122.564912114425184, 45.459632507489992 ], [ -122.564580855274258, 45.459434522540079 ], [ -122.564270527767789, 45.459426485098923 ], [ -122.564270922128188, 45.459800485124724 ], [ -122.564814935576024, 45.459809080769432 ], [ -122.564815570684956, 45.460397372097972 ], [ -122.563462625222073, 45.460362338366693 ], [ -122.56346022402532, 45.460815222739583 ], [ -122.564182394953605, 45.460861349291633 ], [ -122.564181943100976, 45.46043856294726 ], [ -122.564815629973751, 45.460454970851892 ], [ -122.564816504034525, 45.461254782522836 ], [ -122.55826605276313, 45.461063134871139 ], [ -122.558311493143449, 45.464626420925534 ], [ -122.548060037698704, 45.46469608992701 ], [ -122.548037049810574, 45.461156212925808 ], [ -122.543533342540414, 45.459915458222575 ], [ -122.541703043115319, 45.458035162581432 ], [ -122.540849423508135, 45.456572257205899 ], [ -122.535184491019635, 45.456543098258166 ], [ -122.535137172262012, 45.458044900248296 ], [ -122.532841090073944, 45.45802341865307 ], [ -122.532875888113082, 45.45688237515121 ], [ -122.52959812069426, 45.45685796368641 ], [ -122.529590731152751, 45.457828347347849 ], [ -122.527508113828958, 45.457812786175602 ], [ -122.527514199915046, 45.458682366578564 ], [ -122.528549116614528, 45.45868709358394 ], [ -122.52854237206337, 45.459551256224685 ], [ -122.532547269110779, 45.459558589837904 ], [ -122.532507185384489, 45.461323386462468 ], [ -122.517076385371297, 45.461268116076127 ], [ -122.517064730628803, 45.459286266348101 ], [ -122.514363945727112, 45.459300734533379 ], [ -122.514378893693419, 45.461265557359781 ], [ -122.510452453706293, 45.461261703848393 ], [ -122.510446056803147, 45.462659752603102 ], [ -122.506939022255835, 45.462650645158234 ], [ -122.506937266049462, 45.463591885344876 ], [ -122.508349703340357, 45.463600050721219 ], [ -122.510390195067217, 45.465941029218072 ], [ -122.510180792384574, 45.466108553976191 ], [ -122.508700270880013, 45.466075889506811 ], [ -122.507099729961851, 45.465153441661755 ], [ -122.507092537151379, 45.466273747812771 ], [ -122.50656915980224, 45.467383554134656 ], [ -122.505395165032141, 45.466519072423743 ], [ -122.50324570766135, 45.467394576651095 ], [ -122.502401236497036, 45.46679331400572 ], [ -122.501840933898109, 45.466750663657834 ], [ -122.501843629742297, 45.466080830098001 ], [ -122.500515562222873, 45.466066267259997 ], [ -122.50052166897018, 45.464700241208881 ], [ -122.501040631998023, 45.46470833397111 ], [ -122.501051680377714, 45.461110781584729 ], [ -122.501862514126231, 45.461129848197757 ], [ -122.501897627474037, 45.453838745888106 ], [ -122.49685044933841, 45.453789323556812 ], [ -122.496781718337701, 45.460999888760057 ], [ -122.499322244691044, 45.461064462434436 ], [ -122.499315436359481, 45.462518983033014 ], [ -122.496777670529028, 45.462459499996562 ], [ -122.496772853762479, 45.463365578569359 ], [ -122.494172219336903, 45.463396746988266 ], [ -122.494173463503557, 45.464081063018952 ], [ -122.49567619854848, 45.464063013657267 ], [ -122.495675090925729, 45.464524667360763 ], [ -122.49676047946943, 45.464511735909433 ], [ -122.496700636400149, 45.473282099199061 ], [ -122.493515412523635, 45.473382412672549 ], [ -122.493420605226859, 45.473138579388383 ], [ -122.491757443648595, 45.473133888871203 ], [ -122.491734589609422, 45.475485705285266 ], [ -122.485365262055495, 45.475519450898574 ], [ -122.485301160971773, 45.480906432770681 ], [ -122.487364175259401, 45.479213548019466 ], [ -122.488025461970977, 45.479611880123635 ], [ -122.488581877559639, 45.479428211056096 ], [ -122.489008640201703, 45.479546404311215 ], [ -122.488332855579756, 45.480740876195149 ], [ -122.487585656689362, 45.480290804863287 ], [ -122.486926364237732, 45.480832500183311 ], [ -122.488196193078934, 45.481508434830609 ], [ -122.48942767643392, 45.479241460067861 ], [ -122.490451535770603, 45.478113538134977 ], [ -122.493075103287097, 45.476039794837568 ], [ -122.493041941080079, 45.479161428779527 ], [ -122.493457663427293, 45.478957996618881 ], [ -122.493160598647677, 45.47947543472322 ], [ -122.492987256137155, 45.481637056439524 ], [ -122.493804523619701, 45.481206242303131 ], [ -122.493810921421158, 45.481569434584188 ], [ -122.491681431802505, 45.482903559750305 ], [ -122.491578791196432, 45.483434929200349 ], [ -122.490725028757154, 45.483759362546451 ], [ -122.489554699113427, 45.484777499369869 ], [ -122.489073806687301, 45.484835633110883 ], [ -122.487825356851559, 45.485583505138507 ], [ -122.488141474000045, 45.485946186148865 ], [ -122.487681915663629, 45.486361711157727 ], [ -122.489889219148822, 45.486349055526269 ], [ -122.489860767707142, 45.489961822766588 ], [ -122.486004890385558, 45.489977154651847 ], [ -122.486007556585335, 45.489180648051097 ], [ -122.484747315463125, 45.489181642439746 ], [ -122.484742371135781, 45.489980843724744 ], [ -122.482990853961155, 45.48998235134512 ], [ -122.482951705381055, 45.493580654123804 ], [ -122.47952669779896, 45.493584336663616 ], [ -122.479517333760455, 45.495376849809247 ], [ -122.484601354500825, 45.495396153558097 ], [ -122.484599391681925, 45.497201395089753 ], [ -122.482029187686535, 45.497200402102031 ], [ -122.482026726302649, 45.49900910615839 ], [ -122.482335594046788, 45.499831953251849 ], [ -122.482115709821443, 45.500948114628621 ], [ -122.483385796479155, 45.500947082040476 ], [ -122.483389081618185, 45.502593954813278 ], [ -122.483841783114016, 45.502595012555517 ], [ -122.483722865933345, 45.503216148750283 ], [ -122.483391375017106, 45.503215734472448 ], [ -122.483395415639237, 45.504472587077615 ], [ -122.482969357276389, 45.504473210369198 ], [ -122.482987618229473, 45.505911412823266 ], [ -122.483317779639094, 45.50591214879222 ], [ -122.483365601453258, 45.510162183859151 ], [ -122.48281037972562, 45.510160948733279 ], [ -122.48281385171417, 45.510435293936752 ], [ -122.482535925541683, 45.510434671970188 ], [ -122.482833338867664, 45.511036711602848 ], [ -122.483379454373249, 45.511036501974687 ], [ -122.483560296918057, 45.517182672532904 ], [ -122.483205856741222, 45.517182976555041 ], [ -122.483223021749666, 45.518700563872684 ], [ -122.484707598249457, 45.518699538533916 ], [ -122.484700761171823, 45.518110847475057 ], [ -122.485118287336093, 45.518109710086129 ], [ -122.485122622605672, 45.518445039301533 ], [ -122.485573781694171, 45.518579243945588 ], [ -122.486591838812416, 45.518659136771909 ], [ -122.487453110269158, 45.518578606962706 ], [ -122.487447006216811, 45.518018255630238 ], [ -122.489607655697739, 45.518004921656853 ], [ -122.489611425926981, 45.518767377652161 ], [ -122.490274564066368, 45.518835731559719 ], [ -122.492487780262778, 45.518798687890005 ], [ -122.492490186849409, 45.518438875281397 ], [ -122.494011428087546, 45.518655827864507 ], [ -122.494560205301326, 45.518295082781712 ], [ -122.494558629656311, 45.518520334329793 ], [ -122.496681147450104, 45.518524523188717 ], [ -122.49667688494408, 45.519038709389079 ], [ -122.497203798062159, 45.519039984603225 ], [ -122.49719368123543, 45.520013001085609 ], [ -122.497778979457109, 45.520013969753187 ], [ -122.497754407839153, 45.52235333271701 ], [ -122.498339592873108, 45.522358387327685 ], [ -122.498331405627596, 45.523164122085682 ], [ -122.49774611369412, 45.523162093599005 ], [ -122.497721546567718, 45.525563165785265 ], [ -122.496964710550969, 45.525560658448512 ], [ -122.496954698827125, 45.526535723947937 ], [ -122.498084431806546, 45.52653925517852 ], [ -122.49808088885105, 45.527087721627503 ], [ -122.498812496581394, 45.52708998597307 ], [ -122.498760436515738, 45.527737335218276 ], [ -122.497603217783578, 45.527691416336609 ], [ -122.497449108203341, 45.529608097677603 ], [ -122.496669945458478, 45.529577109367217 ], [ -122.496562083844012, 45.529847473965319 ], [ -122.496529097706741, 45.530257592800744 ], [ -122.497004478070323, 45.530276669369059 ], [ -122.496960465112949, 45.530823957210202 ], [ -122.497349829093068, 45.530839774480391 ], [ -122.497328044947409, 45.53111351418152 ], [ -122.497912341547561, 45.53113733655897 ], [ -122.497748832894487, 45.531954913857668 ], [ -122.497261962180147, 45.531934744169448 ], [ -122.497228558326313, 45.532344149918323 ], [ -122.496849943586909, 45.532329117148919 ], [ -122.496741386676419, 45.533148231411886 ], [ -122.496062088743372, 45.533149445896576 ], [ -122.496064907656717, 45.542801152750741 ], [ -122.491941059292643, 45.542851715695704 ], [ -122.491943948274624, 45.548634525902401 ], [ -122.491567456254188, 45.548561822158952 ], [ -122.491581359479838, 45.549735232316856 ], [ -122.477375573154973, 45.548312759429081 ], [ -122.477375392593615, 45.548898829441143 ], [ -122.47526363392204, 45.548784745029991 ], [ -122.475261779799297, 45.549188242387999 ], [ -122.47253726859428, 45.549264634283674 ], [ -122.472819028776399, 45.550938582364438 ], [ -122.472038581440714, 45.550938596832992 ], [ -122.472038380218095, 45.551486915919426 ], [ -122.472819177896767, 45.551487553158715 ], [ -122.472814166195789, 45.558915251717735 ], [ -122.475258560237293, 45.558812584747741 ], [ -122.475245128627165, 45.560802673938532 ], [ -122.521672017244541, 45.567854124787708 ], [ -122.533739418832752, 45.571169854251835 ], [ -122.544278394457237, 45.576233266184268 ], [ -122.543097328149273, 45.579567523733637 ], [ -122.542889331330045, 45.581263613878434 ], [ -122.543233714867213, 45.584654635184883 ], [ -122.544075278184991, 45.586973019912008 ], [ -122.54838652679544, 45.594294339536809 ], [ -122.549483517081015, 45.597237008218357 ], [ -122.551200829104644, 45.597599982906502 ], [ -122.549812184592369, 45.593866973683042 ], [ -122.545558889894167, 45.586628743489626 ], [ -122.544673252533642, 45.584037656030752 ], [ -122.544479942271039, 45.58087012866293 ], [ -122.545580949822565, 45.57700596904958 ], [ -122.569748086061054, 45.590409574107262 ], [ -122.578748613218195, 45.593808274943839 ], [ -122.588872717200019, 45.598197958726047 ], [ -122.588903115290961, 45.605561231615795 ], [ -122.605930896198757, 45.608283452700555 ], [ -122.640847564181186, 45.609450115604979 ], [ -122.67596424206161, 45.618852893707604 ], [ -122.688407306525235, 45.624039003086999 ], [ -122.690939989687863, 45.625363517758139 ], [ -122.701790825344688, 45.615162383159046 ], [ -122.709240380620997, 45.618103428970024 ], [ -122.715818067015235, 45.621083912365201 ], [ -122.715818796447209, 45.619706330501693 ], [ -122.729897416362107, 45.62697994642388 ], [ -122.765090803181266, 45.652886166422419 ], [ -122.767780851418735, 45.649075870425023 ], [ -122.771334933432428, 45.644907051990288 ], [ -122.785159788262703, 45.636153706981851 ], [ -122.788637234999484, 45.633203561470481 ], [ -122.790055733223639, 45.629929972274645 ], [ -122.791613717353485, 45.624636660651689 ], [ -122.792319775200497, 45.61978363114482 ], [ -122.79587408628457, 45.619386840319315 ], [ -122.801743798725226, 45.619675044419573 ], [ -122.801725889013397, 45.614289329613186 ], [ -122.802440835690163, 45.614750930318436 ], [ -122.802901765754029, 45.614303208787106 ], [ -122.80243526074554, 45.614374645509258 ], [ -122.802673419398701, 45.613969350489995 ], [ -122.803966582877763, 45.614059105613499 ], [ -122.80333802358858, 45.613653153557159 ], [ -122.80381436335287, 45.613289897534862 ], [ -122.804550515660196, 45.613765346186533 ], [ -122.80402226495066, 45.614467801904595 ], [ -122.804222383544797, 45.614597047711101 ], [ -122.804577298032072, 45.614341737803187 ], [ -122.805401478050726, 45.614874028308762 ], [ -122.804870429987375, 45.615481504067866 ], [ -122.805301779427225, 45.615760073143342 ], [ -122.804970941586191, 45.616012346115731 ], [ -122.805560339718838, 45.616392789564784 ], [ -122.805824915129577, 45.616191018389756 ], [ -122.807276292591453, 45.617128371677225 ], [ -122.809616069733252, 45.616090427848917 ], [ -122.810174220867054, 45.61497953221896 ], [ -122.80986868497429, 45.614707277989311 ], [ -122.810818515046705, 45.613318843363011 ], [ -122.815848067338152, 45.613322426951662 ], [ -122.816045839532777, 45.603765947386535 ], [ -122.826297771982937, 45.603801785595351 ], [ -122.826257688256646, 45.606168517904642 ], [ -122.83287798533803, 45.606195059820614 ], [ -122.832866521936708, 45.608109633715273 ], [ -122.834720275475533, 45.608114608346533 ], [ -122.83474313400626, 45.609516346462833 ], [ -122.836539752896428, 45.609536431752836 ], [ -122.836763633726449, 45.591816307001629 ], [ -122.818555004801212, 45.591847031561215 ], [ -122.818550228458875, 45.590611036336966 ], [ -122.816198669912069, 45.590600866466104 ], [ -122.816187219985466, 45.588225531310158 ], [ -122.812132970394615, 45.588207485275902 ], [ -122.812594381955449, 45.588954828647132 ], [ -122.810738018810724, 45.589693807526601 ], [ -122.810306006414194, 45.58961139107199 ], [ -122.809833134146942, 45.58940761627084 ], [ -122.810252370703495, 45.588818115192986 ], [ -122.810116550822471, 45.588269042056545 ], [ -122.80855803129667, 45.587845019396887 ], [ -122.809445886597672, 45.587234746031946 ], [ -122.808149806288881, 45.585607671691839 ], [ -122.806018693414458, 45.586598607021735 ], [ -122.805900105915512, 45.585189847872293 ], [ -122.804871044435046, 45.585551666381569 ], [ -122.802853505562041, 45.583711163269356 ], [ -122.803466064957618, 45.583268702711052 ], [ -122.802861687417618, 45.582717329533473 ], [ -122.802575324268005, 45.582924170947749 ], [ -122.801705386763686, 45.582116524252179 ], [ -122.801362648041774, 45.582350982977175 ], [ -122.799838692993191, 45.580960309583276 ], [ -122.800634700047908, 45.580959379060637 ], [ -122.800624156521394, 45.578438561100057 ], [ -122.799420404159207, 45.578443117093087 ], [ -122.79863117399502, 45.578108409069898 ], [ -122.797502963660023, 45.5786479584578 ], [ -122.796748347380301, 45.577887986805706 ], [ -122.796706617042105, 45.577304731075557 ], [ -122.795512049953729, 45.577304688947812 ], [ -122.795363553945634, 45.573195858985869 ], [ -122.793608966329344, 45.572150364362393 ], [ -122.791277083582216, 45.57200105913082 ], [ -122.790610300977761, 45.570276280225848 ], [ -122.791358258046216, 45.568531697415999 ], [ -122.791371054547454, 45.567839790763465 ], [ -122.794046055105568, 45.567845383379073 ], [ -122.795289364781326, 45.567557073352134 ], [ -122.795193146231185, 45.562871397504608 ], [ -122.790015638717549, 45.562903289483458 ], [ -122.789989036907002, 45.555701841591514 ], [ -122.784813900945693, 45.555708764522528 ], [ -122.784783782230861, 45.54988765657145 ], [ -122.783740430350861, 45.54989085292371 ], [ -122.783734576030128, 45.54853302033068 ], [ -122.784777894672501, 45.548453245423701 ], [ -122.783094681798786, 45.54839297049908 ], [ -122.783088868800533, 45.548735712340971 ], [ -122.782600997363019, 45.548731637081083 ], [ -122.782704381774096, 45.548390036394714 ], [ -122.778425615345981, 45.548372634334413 ], [ -122.778497370974279, 45.545997187443049 ], [ -122.776890402610277, 45.545168250220321 ], [ -122.777415663726572, 45.54466346624622 ], [ -122.780238508115815, 45.546175275504481 ], [ -122.780862774356237, 45.546135452764361 ], [ -122.779594323530674, 45.542379550670042 ], [ -122.782181708704158, 45.544070823442929 ], [ -122.782496536770196, 45.543587035046428 ], [ -122.782830404628683, 45.54382008741517 ], [ -122.783314902892371, 45.543619742652737 ], [ -122.783912666136942, 45.544332612370702 ], [ -122.78243977043077, 45.542305142609692 ], [ -122.784772229896333, 45.542310823962588 ], [ -122.784878530238814, 45.534000087219724 ], [ -122.779848127242801, 45.533904226099231 ], [ -122.779953733187639, 45.530337664755415 ], [ -122.774732837045761, 45.530255186361103 ], [ -122.774672292392211, 45.533805667809837 ], [ -122.766103116471584, 45.533857643979289 ], [ -122.766127646767089, 45.531353203739933 ], [ -122.763484762777011, 45.531168721720263 ], [ -122.76350051922708, 45.529779867205015 ], [ -122.765248078424634, 45.529466055509879 ], [ -122.765252861055203, 45.528954948182133 ], [ -122.766033268865002, 45.528958551631803 ], [ -122.766039929872846, 45.528245473143286 ], [ -122.764486088773069, 45.528238291325124 ], [ -122.764493763978848, 45.526733192460654 ], [ -122.763206177241074, 45.526730761326007 ], [ -122.763200117206196, 45.527513623409924 ], [ -122.762079732095643, 45.527520488767834 ], [ -122.761828815568776, 45.52582795917349 ], [ -122.759339705189021, 45.523401128504361 ], [ -122.759336909631884, 45.522255075174506 ], [ -122.758693379020201, 45.52225401717228 ], [ -122.75869543077232, 45.522979591178611 ], [ -122.758159230870831, 45.522661661877969 ], [ -122.758032567517446, 45.522804079976197 ], [ -122.757963184339872, 45.526724969523372 ], [ -122.759347883451383, 45.52672671342058 ], [ -122.759386330447256, 45.523659947992442 ], [ -122.761444969939475, 45.525671834558203 ], [ -122.761829738138601, 45.52642426508298 ], [ -122.761852246326342, 45.526728218169026 ], [ -122.759347938248652, 45.526726642305299 ], [ -122.759375065573565, 45.529498405703023 ], [ -122.760123703565057, 45.529384412818146 ], [ -122.76011934044773, 45.529952322147551 ], [ -122.757648368850241, 45.530316882179854 ], [ -122.756653495452838, 45.529760885493218 ], [ -122.755969572992711, 45.530327643810629 ], [ -122.754780190980171, 45.530323540156445 ], [ -122.754297057257375, 45.530870360606713 ], [ -122.750754818632444, 45.530850017474151 ], [ -122.7507507959766, 45.530301475694586 ], [ -122.749019707389778, 45.530291456631247 ], [ -122.749055515135339, 45.533879479883751 ], [ -122.749481329156424, 45.533883081759441 ], [ -122.749428140806742, 45.535652199072409 ], [ -122.749939994567455, 45.535655880118604 ], [ -122.749861160214778, 45.537423338411919 ], [ -122.754188852486479, 45.537440080035978 ], [ -122.754328761498741, 45.533923809241898 ], [ -122.755912394326614, 45.533916904393053 ], [ -122.755886588423394, 45.534569975502031 ], [ -122.756800191237019, 45.534974545187474 ], [ -122.757244584214831, 45.534941972244525 ], [ -122.756700997466737, 45.535729318513795 ], [ -122.757404103449716, 45.535688271427389 ], [ -122.758156656299192, 45.536754652840649 ], [ -122.757855762899865, 45.536988822088205 ], [ -122.758666364883013, 45.537561978440259 ], [ -122.759293164372494, 45.537372594403571 ], [ -122.759371348344942, 45.53761581487796 ], [ -122.758708736618331, 45.538444596046723 ], [ -122.758661951460027, 45.539320999056642 ], [ -122.758196803805902, 45.539319561969215 ], [ -122.758172051626559, 45.539045143662925 ], [ -122.757119553100324, 45.538852728088543 ], [ -122.757100224948687, 45.5386749358372 ], [ -122.757976593492103, 45.538632058655033 ], [ -122.757842039337262, 45.537988250168034 ], [ -122.757371997661465, 45.538084746122443 ], [ -122.756858402067422, 45.537469894297189 ], [ -122.754187545437745, 45.537472961736576 ], [ -122.754050767054281, 45.540916900357701 ], [ -122.755711231890061, 45.540907946499516 ], [ -122.755796190956346, 45.543993531731417 ], [ -122.76039248668458, 45.543426560068909 ], [ -122.761013624092826, 45.544899191123058 ], [ -122.762474787801366, 45.546654668016174 ], [ -122.764729576232511, 45.547067835002288 ], [ -122.765859408924896, 45.546743534294805 ], [ -122.766614972927243, 45.546850958651341 ], [ -122.770085577196525, 45.548990322394886 ], [ -122.770775535436968, 45.550298694280876 ], [ -122.769129746378027, 45.550219974952519 ], [ -122.766278070559721, 45.551694804000462 ], [ -122.76374587877558, 45.551972977675646 ], [ -122.763790249262428, 45.548010681330496 ], [ -122.754918906131351, 45.548091072754019 ], [ -122.755050644966104, 45.544500555166913 ], [ -122.754583205709707, 45.544136061284277 ], [ -122.754313262865139, 45.544132590298112 ], [ -122.75429077354201, 45.544506304874098 ], [ -122.753907565716531, 45.54450920206196 ], [ -122.753764333836031, 45.548101499448045 ], [ -122.743712737372306, 45.548162913353828 ], [ -122.743738398646755, 45.540891867805342 ], [ -122.740784250207341, 45.53961375829364 ], [ -122.739269621468054, 45.538249275244056 ], [ -122.737514154401083, 45.538262039389252 ], [ -122.737518249820468, 45.537726422259752 ], [ -122.739182496563615, 45.537705658774172 ], [ -122.739439474921966, 45.537168696731854 ], [ -122.736286031643559, 45.537196026341597 ], [ -122.736294393162211, 45.536090212938191 ], [ -122.739923130565884, 45.536058741801263 ], [ -122.740407194943231, 45.535455311198945 ], [ -122.737535208216414, 45.535477486902266 ], [ -122.737540695126143, 45.534753314975717 ], [ -122.739854830756514, 45.534726794651561 ], [ -122.740480927763443, 45.534409295450622 ], [ -122.740197090676403, 45.53386163977234 ], [ -122.738683707002096, 45.53387471954278 ], [ -122.738685633888352, 45.533281658450001 ], [ -122.736188977660206, 45.531655507899266 ], [ -122.736196041113345, 45.532107760113895 ], [ -122.734239385558709, 45.532104543872116 ], [ -122.734246367265087, 45.532921861066576 ], [ -122.732125872477354, 45.532924288157936 ], [ -122.73213040178301, 45.53392504510466 ], [ -122.729380499696504, 45.533929551221171 ], [ -122.729374595968466, 45.53321828322634 ], [ -122.72568914073436, 45.533224840176977 ], [ -122.725687266848709, 45.532979829948736 ], [ -122.725101955152269, 45.532980092353739 ], [ -122.72509785524133, 45.532515667560979 ], [ -122.724782763968904, 45.532514977876914 ], [ -122.724759478738449, 45.531027113928445 ], [ -122.726076595794538, 45.530500583519682 ], [ -122.726819217768551, 45.530693738775973 ], [ -122.727066067622076, 45.531543155526386 ], [ -122.727047664735196, 45.530309139921272 ], [ -122.735182816931328, 45.530295760404712 ], [ -122.735271111442287, 45.530097504557183 ], [ -122.734006152368224, 45.529911233086352 ], [ -122.73317477325088, 45.529450149120905 ], [ -122.732584130053255, 45.528411824613613 ], [ -122.7329206362637, 45.528409908964363 ], [ -122.732819443741903, 45.528054308211438 ], [ -122.732169194630259, 45.527833136994893 ], [ -122.732045269341853, 45.526628065144365 ], [ -122.733597447660046, 45.52663402373198 ], [ -122.733599578463895, 45.525402733140744 ], [ -122.730793431060832, 45.525382238244539 ], [ -122.730471038281749, 45.525786948285486 ], [ -122.730636425312113, 45.526505615651708 ], [ -122.72850328134686, 45.526605011169153 ], [ -122.728505029468366, 45.524456528892671 ], [ -122.726795817553722, 45.524440074798981 ], [ -122.726795924453228, 45.524664826578316 ], [ -122.724361385828658, 45.526038098912458 ], [ -122.723402286040866, 45.524853421396443 ], [ -122.723399275786335, 45.524303461705912 ], [ -122.724068983305372, 45.524073704376264 ], [ -122.725274181056875, 45.525523091809383 ], [ -122.725111979452535, 45.523787439909867 ], [ -122.725840542792383, 45.523656640637924 ], [ -122.726100473913107, 45.523035664545709 ], [ -122.728506358975025, 45.523047737308765 ], [ -122.72850467283719, 45.520963363007048 ], [ -122.730691059051054, 45.520871931442088 ], [ -122.730687711928283, 45.523056918069962 ], [ -122.741286006005893, 45.523095643154896 ], [ -122.741260868449302, 45.526679336793919 ], [ -122.74381603374853, 45.526694680078812 ], [ -122.743820781344823, 45.52613304138012 ], [ -122.74494546040242, 45.526138412841156 ], [ -122.745635360252408, 45.526675820676353 ], [ -122.746718080799781, 45.526864307429335 ], [ -122.746721361447143, 45.525893828019548 ], [ -122.747235683778271, 45.525370346606991 ], [ -122.746843084964809, 45.525132681366593 ], [ -122.746572229431891, 45.523964301818232 ], [ -122.745861496752127, 45.523078019905704 ], [ -122.745059566206464, 45.522597056198975 ], [ -122.744689868144548, 45.521564864537154 ], [ -122.743861321415281, 45.521198608193565 ], [ -122.743873173787136, 45.516804681791022 ], [ -122.746417827899208, 45.515976104174683 ], [ -122.746418861860093, 45.515720982676129 ], [ -122.742713131650021, 45.515783829983349 ], [ -122.742712252199397, 45.514782176186067 ], [ -122.742284155559148, 45.514782295785743 ], [ -122.742284219339552, 45.515875684630565 ], [ -122.740435064276653, 45.516561857253187 ], [ -122.73984483071078, 45.516495572113243 ], [ -122.739778037376155, 45.516282146852078 ], [ -122.740496728230966, 45.515737551993446 ], [ -122.740951860567989, 45.515850307317592 ], [ -122.741397873208285, 45.515551650935471 ], [ -122.739994867329528, 45.514948459199545 ], [ -122.741446782882207, 45.514556398540485 ], [ -122.741596357766937, 45.511996402660458 ], [ -122.741337788492174, 45.511807306464469 ], [ -122.739782357374352, 45.511852027143647 ], [ -122.739769050630031, 45.510906138271977 ], [ -122.739086614881742, 45.510905380964779 ], [ -122.739097440479213, 45.511851364274897 ], [ -122.738242244328774, 45.511850169474499 ], [ -122.738233144394897, 45.510208164262629 ], [ -122.740692946340161, 45.510210405365676 ], [ -122.7415767259847, 45.510893321334308 ], [ -122.7413968284676, 45.510456978406012 ], [ -122.739665127229742, 45.509296272173451 ], [ -122.741833707936323, 45.509123760833461 ], [ -122.741572664701309, 45.509204299136933 ], [ -122.741684678328994, 45.509617266002891 ], [ -122.743847278950767, 45.509581273875646 ], [ -122.743832282475381, 45.507527773882927 ], [ -122.74342381312583, 45.507706722870154 ], [ -122.743412235638417, 45.507410727208274 ], [ -122.743068177291363, 45.507380367557793 ], [ -122.743830587354466, 45.506829331137006 ], [ -122.742743496503266, 45.507470774726237 ], [ -122.742528679674422, 45.505110613717413 ], [ -122.74042538043787, 45.505104055378496 ], [ -122.737841341488789, 45.506993417192504 ], [ -122.737114651136352, 45.507080225167982 ], [ -122.737111945410717, 45.507483115871047 ], [ -122.736542517725155, 45.507477415260944 ], [ -122.736550544172218, 45.506919221692023 ], [ -122.734545734426746, 45.50690033866249 ], [ -122.734548181437631, 45.507052321877055 ], [ -122.736453029353186, 45.507072998467521 ], [ -122.73644533258782, 45.50742402780736 ], [ -122.734553504853963, 45.507381547973353 ], [ -122.734570500080849, 45.507942999279003 ], [ -122.733468306753096, 45.507934953646384 ], [ -122.733476467049144, 45.507723496632956 ], [ -122.732710911984242, 45.507725443204983 ], [ -122.732707080669513, 45.506986140745681 ], [ -122.732150616571872, 45.506949876225228 ], [ -122.732067666138505, 45.505073139823239 ], [ -122.732390624856208, 45.505072365438863 ], [ -122.732443972207676, 45.503770246375097 ], [ -122.731845916112306, 45.503770948373877 ], [ -122.731792527438316, 45.505073777588592 ], [ -122.732066526176439, 45.505073138564065 ], [ -122.731482655377732, 45.505074529307969 ], [ -122.731482983262808, 45.506049925914731 ], [ -122.729476234054644, 45.505632413790401 ], [ -122.729538115401311, 45.506447292630625 ], [ -122.730051644520017, 45.506438521524771 ], [ -122.730052500614505, 45.50850748441519 ], [ -122.727993733561505, 45.508987320186982 ], [ -122.726600528302484, 45.509009211072637 ], [ -122.725138639653551, 45.508719776401172 ], [ -122.723321175357242, 45.507924692630105 ], [ -122.723327096153284, 45.508482756615336 ], [ -122.722424258750024, 45.508746105645862 ], [ -122.722097166883671, 45.50862858242391 ], [ -122.72174259734949, 45.509236115175412 ] ], [ [ -122.724279144166118, 45.523028027020707 ], [ -122.725948028911048, 45.523034899849222 ], [ -122.725749590166458, 45.523560797132703 ], [ -122.725370762526339, 45.523678009102703 ], [ -122.724308551415277, 45.523634222999917 ], [ -122.724279144166118, 45.523028027020707 ] ], [ [ -122.488181932323798, 45.478168213773905 ], [ -122.489723399130511, 45.478684859188725 ], [ -122.489307545629316, 45.479119769759421 ], [ -122.487803753267286, 45.478721404572156 ], [ -122.488181932323798, 45.478168213773905 ] ], [ [ -122.746629565303238, 45.465769998529915 ], [ -122.746622992330316, 45.4663322326629 ], [ -122.744960180196685, 45.466449995366951 ], [ -122.744944524357933, 45.465680619386497 ], [ -122.746629565303238, 45.465769998529915 ] ], [ [ -122.493382478031265, 45.486328912314718 ], [ -122.490175483483796, 45.486347407365407 ], [ -122.49075085172835, 45.485472275650316 ], [ -122.493382478031265, 45.486328912314718 ] ], [ [ -122.67295788174124, 45.442542232777711 ], [ -122.671315900640792, 45.441178369125872 ], [ -122.670908474235262, 45.441179081989489 ], [ -122.670551906847834, 45.440882824305689 ], [ -122.670538079978982, 45.440301857128226 ], [ -122.673054395837099, 45.44029765047415 ], [ -122.67295788174124, 45.442542232777711 ] ], [ [ -122.731492953664102, 45.515625855829192 ], [ -122.730970249153145, 45.515157502127309 ], [ -122.730061811652405, 45.515067361610825 ], [ -122.73005437000856, 45.514416208683969 ], [ -122.734655632521978, 45.514260156893421 ], [ -122.734655609165827, 45.514465847272497 ], [ -122.73519020377789, 45.514467329687804 ], [ -122.735218537540305, 45.517104342413546 ], [ -122.733200728274355, 45.516533200801803 ], [ -122.731132074363373, 45.517236792216131 ], [ -122.731492953664102, 45.515625855829192 ] ], [ [ -122.557867532255287, 45.546286471261439 ], [ -122.559233147556952, 45.546290298196382 ], [ -122.559202553633341, 45.548103252118878 ], [ -122.564943015572624, 45.552670509691929 ], [ -122.566390346124095, 45.552672174782607 ], [ -122.568239189471583, 45.553592153419302 ], [ -122.568234465231512, 45.55669730578645 ], [ -122.567633524645785, 45.556924834640839 ], [ -122.567648288457477, 45.555402719960249 ], [ -122.557781670382141, 45.555394489892663 ], [ -122.557837765680077, 45.548111794658425 ], [ -122.558366010101409, 45.548099637313875 ], [ -122.557843166351532, 45.547683090815568 ], [ -122.557867532255287, 45.546286471261439 ] ] ], [ [ [ -122.669422031036319, 45.436287352518733 ], [ -122.669423858209612, 45.435834261712614 ], [ -122.668610421143413, 45.435834084582986 ], [ -122.668653163882936, 45.436324069740508 ], [ -122.669422031036319, 45.436287352518733 ] ] ], [ [ [ -122.756966641872694, 45.536798674128647 ], [ -122.757561742510745, 45.537351142421002 ], [ -122.757874333771753, 45.537193316914099 ], [ -122.757261650408608, 45.536641987231526 ], [ -122.756966641872694, 45.536798674128647 ] ] ] ] } }
]
}
